[{"OBJECT_NAME":"STARLINK-30494","OBJECT_ID":"2023-151G","EPOCH":"2026-03-09T08:39:06.366240","MEAN_MOTION":15.28417441,"ECCENTRICITY":0.00011553,"INCLINATION":43.0027,"RA_OF_ASC_NODE":192.4566,"ARG_OF_PERICENTER":241.5536,"MEAN_ANOMALY":118.52,"EPHEMERIS_TYPE":0,"CLASSIFICATION_TYPE":"U","NORAD_CAT_ID":57970,"ELEMENT_SET_NO":999,"REV_AT_EPOCH":13740,"BSTAR":-3.569111e-5,"MEAN_MOTION_DOT":-1.272e-5,"MEAN_MOTION_DDOT":0},{"OBJECT_NAME":"STARLINK-31003","OBJECT_ID":"2023-191N","EPOCH":"2026-03-09T09:53:17.810880","MEAN_MOTION":15.2757637,"ECCENTRICITY":4.983e-5,"INCLINATION":43.0017,"RA_OF_ASC_NODE":104.5913,"ARG_OF_PERICENTER":273.2566,"MEAN_ANOMALY":86.8229,"EPHEMERIS_TYPE":0,"CLASSIFICATION_TYPE":"U","NORAD_CAT_ID":58520,"ELEMENT_SET_NO":999,"REV_AT_EPOCH":12543,"BSTAR":-3.9041589e-5,"MEAN_MOTION_DOT":-1.336e-5,"MEAN_MOTION_DDOT":0}]
