STARLINK-30494          
1 57970U 23151G   26068.36049035 -.00001272  00000+0 -35691-4 0  9993
2 57970  43.0027 192.4566 0001155 241.5536 118.5200 15.28417441137406
STARLINK-31003          
1 58520U 23191N   26068.41201170 -.00001336  00000+0 -39042-4 0  9990
2 58520  43.0017 104.5913 0000498 273.2566  86.8229 15.27576370125435
